{
  "type": "FeatureCollection",
  "features": [
    {
      "type": "Feature",
      "properties": {
        "norad_id": 40730,
        "name": "GPS BIIF-10 (PRN 08)",
        "group": "gps-ops",
        "lat": -6.628021996497574,
        "lon": -89.63263690324786,
        "alt_km": 19941.519173537265,
        "timestamp": "2025-12-02T06:27:53.272838+00:00",
        "meta_object_name": "GPS BIIF-10 (PRN 08)",
        "meta_object_id": "2015-033A",
        "meta_epoch": "2025-12-01T06:48:01.246464",
        "meta_mean_motion": 2.00566025,
        "meta_eccentricity": 0.01102431,
        "meta_inclination": 54.1407,
        "meta_ra_of_asc_node": 275.2444,
        "meta_arg_of_pericenter": 26.5275,
        "meta_mean_anomaly": 334.0308,
        "meta_ephemeris_type": 0,
        "meta_classification_type": "U",
        "meta_norad_cat_id": 40730,
        "meta_element_set_no": 999,
        "meta_rev_at_epoch": 7602,
        "meta_bstar": 0,
        "meta_mean_motion_dot": -3.9e-07,
        "meta_mean_motion_ddot": 0,
        "tle_line1": "1 40730U 15033A   25335.28334776 -.00000039  00000+0  00000+0 0  9995",
        "tle_line2": "2 40730  54.1407 275.2444 0110243  26.5275 334.0308  2.00566025 76025"
      },
      "geometry": {
        "type": "Point",
        "coordinates": [
          -89.63263690324786,
          -6.628021996497574
        ]
      }
    },
    {
      "type": "Feature",
      "properties": {
        "norad_id": 41019,
        "name": "GPS BIIF-11 (PRN 10)",
        "group": "gps-ops",
        "lat": -40.31068991989861,
        "lon": 4.756036503626988,
        "alt_km": 20131.631559578647,
        "timestamp": "2025-12-02T06:27:53.272849+00:00",
        "meta_object_name": "GPS BIIF-11 (PRN 10)",
        "meta_object_id": "2015-062A",
        "meta_epoch": "2025-12-01T08:13:28.844544",
        "meta_mean_motion": 2.00567003,
        "meta_eccentricity": 0.01104814,
        "meta_inclination": 56.824,
        "meta_ra_of_asc_node": 38.4433,
        "meta_arg_of_pericenter": 229.6355,
        "meta_mean_anomaly": 129.443,
        "meta_ephemeris_type": 0,
        "meta_classification_type": "U",
        "meta_norad_cat_id": 41019,
        "meta_element_set_no": 999,
        "meta_rev_at_epoch": 7386,
        "meta_bstar": 0,
        "meta_mean_motion_dot": -6.4e-07,
        "meta_mean_motion_ddot": 0,
        "tle_line1": "1 41019U 15062A   25335.34269496 -.00000064  00000+0  00000+0 0  9999",
        "tle_line2": "2 41019  56.8240  38.4433 0110481 229.6355 129.4430  2.00567003 73864"
      },
      "geometry": {
        "type": "Point",
        "coordinates": [
          4.756036503626988,
          -40.31068991989861
        ]
      }
    },
    {
      "type": "Feature",
      "properties": {
        "norad_id": 41328,
        "name": "GPS BIIF-12 (PRN 32)",
        "group": "gps-ops",
        "lat": -50.17190270179454,
        "lon": -26.943052482978146,
        "alt_km": 19946.226318948513,
        "timestamp": "2025-12-02T06:27:53.272860+00:00",
        "meta_object_name": "GPS BIIF-12 (PRN 32)",
        "meta_object_id": "2016-007A",
        "meta_epoch": "2025-11-30T22:13:59.280384",
        "meta_mean_motion": 2.0056118,
        "meta_eccentricity": 0.00915893,
        "meta_inclination": 55.3993,
        "meta_ra_of_asc_node": 97.326,
        "meta_arg_of_pericenter": 243.2849,
        "meta_mean_anomaly": 115.759,
        "meta_ephemeris_type": 0,
        "meta_classification_type": "U",
        "meta_norad_cat_id": 41328,
        "meta_element_set_no": 999,
        "meta_rev_at_epoch": 7186,
        "meta_bstar": 0,
        "meta_mean_motion_dot": 2.3e-07,
        "meta_mean_motion_ddot": 0,
        "tle_line1": "1 41328U 16007A   25334.92638056  .00000023  00000+0  00000+0 0  9991",
        "tle_line2": "2 41328  55.3993  97.3260 0091589 243.2849 115.7590  2.00561180 71868"
      },
      "geometry": {
        "type": "Point",
        "coordinates": [
          -26.943052482978146,
          -50.17190270179454
        ]
      }
    },
    {
      "type": "Feature",
      "properties": {
        "norad_id": 43873,
        "name": "GPS BIII-1  (PRN 04)",
        "group": "gps-ops",
        "lat": 29.450424417193513,
        "lon": -102.8343179839846,
        "alt_km": 20117.167163392576,
        "timestamp": "2025-12-02T06:27:53.272871+00:00",
        "meta_object_name": "GPS BIII-1  (PRN 04)",
        "meta_object_id": "2018-109A",
        "meta_epoch": "2025-12-01T14:03:36.800640",
        "meta_mean_motion": 2.00553137,
        "meta_eccentricity": 0.00371823,
        "meta_inclination": 55.5605,
        "meta_ra_of_asc_node": 99.9877,
        "meta_arg_of_pericenter": 194.4831,
        "meta_mean_anomaly": 175.6663,
        "meta_ephemeris_type": 0,
        "meta_classification_type": "U",
        "meta_norad_cat_id": 43873,
        "meta_element_set_no": 999,
        "meta_rev_at_epoch": 5111,
        "meta_bstar": 0,
        "meta_mean_motion_dot": 2.2e-07,
        "meta_mean_motion_ddot": 0,
        "tle_line1": "1 43873U 18109A   25335.58584260  .00000022  00000+0  00000+0 0  9992",
        "tle_line2": "2 43873  55.5605  99.9877 0037182 194.4831 175.6663  2.00553137 51111"
      },
      "geometry": {
        "type": "Point",
        "coordinates": [
          -102.8343179839846,
          29.450424417193513
        ]
      }
    },
    {
      "type": "Feature",
      "properties": {
        "norad_id": 44506,
        "name": "GPS BIII-2  (PRN 18)",
        "group": "gps-ops",
        "lat": 32.021956561051674,
        "lon": 4.217777969954997,
        "alt_km": 20320.75720662239,
        "timestamp": "2025-12-02T06:27:53.272883+00:00",
        "meta_object_name": "GPS BIII-2  (PRN 18)",
        "meta_object_id": "2019-056A",
        "meta_epoch": "2025-12-01T10:53:28.832352",
        "meta_mean_motion": 2.00565577,
        "meta_eccentricity": 0.00578098,
        "meta_inclination": 55.7254,
        "meta_ra_of_asc_node": 339.0016,
        "meta_arg_of_pericenter": 198.3769,
        "meta_mean_anomaly": 332.9368,
        "meta_ephemeris_type": 0,
        "meta_classification_type": "U",
        "meta_norad_cat_id": 44506,
        "meta_element_set_no": 999,
        "meta_rev_at_epoch": 4610,
        "meta_bstar": 0,
        "meta_mean_motion_dot": -5.6e-07,
        "meta_mean_motion_ddot": 0,
        "tle_line1": "1 44506U 19056A   25335.45380593 -.00000056  00000+0  00000+0 0  9995",
        "tle_line2": "2 44506  55.7254 339.0016 0057809 198.3769 332.9368  2.00565577 46105"
      },
      "geometry": {
        "type": "Point",
        "coordinates": [
          4.217777969954997,
          32.021956561051674
        ]
      }
    },
    {
      "type": "Feature",
      "properties": {
        "norad_id": 45854,
        "name": "GPS BIII-3  (PRN 23)",
        "group": "gps-ops",
        "lat": -12.622055607455577,
        "lon": 28.102992531787798,
        "alt_km": 20309.99101110187,
        "timestamp": "2025-12-02T06:27:53.272894+00:00",
        "meta_object_name": "GPS BIII-3  (PRN 23)",
        "meta_object_id": "2020-041A",
        "meta_epoch": "2025-12-01T12:48:33.414048",
        "meta_mean_motion": 2.00561786,
        "meta_eccentricity": 0.00602336,
        "meta_inclination": 56.5391,
        "meta_ra_of_asc_node": 36.623,
        "meta_arg_of_pericenter": 202.9184,
        "meta_mean_anomaly": 330.3559,
        "meta_ephemeris_type": 0,
        "meta_classification_type": "U",
        "meta_norad_cat_id": 45854,
        "meta_element_set_no": 999,
        "meta_rev_at_epoch": 4007,
        "meta_bstar": 0,
        "meta_mean_motion_dot": -6.5e-07,
        "meta_mean_motion_ddot": 0,
        "tle_line1": "1 45854U 20041A   25335.53372007 -.00000065  00000+0  00000+0 0  9998",
        "tle_line2": "2 45854  56.5391  36.6230 0060233 202.9184 330.3559  2.00561786 40071"
      },
      "geometry": {
        "type": "Point",
        "coordinates": [
          28.102992531787798,
          -12.622055607455577
        ]
      }
    },
    {
      "type": "Feature",
      "properties": {
        "norad_id": 46826,
        "name": "GPS BIII-4  (PRN 14)",
        "group": "gps-ops",
        "lat": -34.39303581928222,
        "lon": -171.0170037515183,
        "alt_km": 20248.26528492775,
        "timestamp": "2025-12-02T06:27:53.272905+00:00",
        "meta_object_name": "GPS BIII-4  (PRN 14)",
        "meta_object_id": "2020-078A",
        "meta_epoch": "2025-11-12T03:01:29.190720",
        "meta_mean_motion": 2.00567032,
        "meta_eccentricity": 0.0063911,
        "meta_inclination": 54.0223,
        "meta_ra_of_asc_node": 219.5836,
        "meta_arg_of_pericenter": 203.4985,
        "meta_mean_anomaly": 326.7754,
        "meta_ephemeris_type": 0,
        "meta_classification_type": "U",
        "meta_norad_cat_id": 46826,
        "meta_element_set_no": 999,
        "meta_rev_at_epoch": 3715,
        "meta_bstar": 0,
        "meta_mean_motion_dot": -3.4e-07,
        "meta_mean_motion_ddot": 0,
        "tle_line1": "1 46826U 20078A   25316.12603230 -.00000034  00000+0  00000+0 0  9993",
        "tle_line2": "2 46826  54.0223 219.5836 0063911 203.4985 326.7754  2.00567032 37154"
      },
      "geometry": {
        "type": "Point",
        "coordinates": [
          -171.0170037515183,
          -34.39303581928222
        ]
      }
    }
  ]
}